[{"OBJECT_NAME":"FENGYUN 1C DEB","OBJECT_ID":"1999-025BZG","EPOCH":"2026-02-28T10:02:18.184992","MEAN_MOTION":14.40806305,"ECCENTRICITY":0.00502267,"INCLINATION":100.7161,"RA_OF_ASC_NODE":315.8842,"ARG_OF_PERICENTER":166.9383,"MEAN_ANOMALY":193.3111,"EPHEMERIS_TYPE":0,"CLASSIFICATION_TYPE":"U","NORAD_CAT_ID":31565,"ELEMENT_SET_NO":999,"REV_AT_EPOCH":65471,"BSTAR":0.002552704,"MEAN_MOTION_DOT":8.244e-5,"MEAN_MOTION_DDOT":0},{"OBJECT_NAME":"FENGYUN 1C DEB","OBJECT_ID":"1999-025BZH","EPOCH":"2026-03-02T16:43:42.857184","MEAN_MOTION":14.38525142,"ECCENTRICITY":0.0026325,"INCLINATION":98.9417,"RA_OF_ASC_NODE":128.8844,"ARG_OF_PERICENTER":123.3301,"MEAN_ANOMALY":7.9703,"EPHEMERIS_TYPE":0,"CLASSIFICATION_TYPE":"U","NORAD_CAT_ID":31566,"ELEMENT_SET_NO":999,"REV_AT_EPOCH":97540,"BSTAR":0.0019233,"MEAN_MOTION_DOT":5.86e-5,"MEAN_MOTION_DDOT":0},{"OBJECT_NAME":"FENGYUN 1C DEB","OBJECT_ID":"1999-025BZJ","EPOCH":"2026-03-02T15:52:33.492864","MEAN_MOTION":13.9355135,"ECCENTRICITY":0.0184453,"INCLINATION":102.3165,"RA_OF_ASC_NODE":319.5528,"ARG_OF_PERICENTER":116.0316,"MEAN_ANOMALY":245.9953,"EPHEMERIS_TYPE":0,"CLASSIFICATION_TYPE":"U","NORAD_CAT_ID":31567,"ELEMENT_SET_NO":999,"REV_AT_EPOCH":68522,"BSTAR":0.0026839,"MEAN_MOTION_DOT":3.987e-5,"MEAN_MOTION_DDOT":0},{"OBJECT_NAME":"FENGYUN 1C DEB","OBJECT_ID":"1999-025BZK","EPOCH":"2026-02-27T11:03:09.225216","MEAN_MOTION":14.04209024,"ECCENTRICITY":0.01287097,"INCLINATION":102.0506,"RA_OF_ASC_NODE":330.2622,"ARG_OF_PERICENTER":293.0734,"MEAN_ANOMALY":65.6896,"EPHEMERIS_TYPE":0,"CLASSIFICATION_TYPE":"U","NORAD_CAT_ID":31568,"ELEMENT_SET_NO":999,"REV_AT_EPOCH":95656,"BSTAR":0.0028060281,"MEAN_MOTION_DOT":4.727e-5,"MEAN_MOTION_DDOT":0},{"OBJECT_NAME":"FENGYUN 1C DEB","OBJECT_ID":"1999-025BZL","EPOCH":"2026-03-01T00:47:24.742464","MEAN_MOTION":13.96308676,"ECCENTRICITY":0.01745748,"INCLINATION":102.6187,"RA_OF_ASC_NODE":250.8778,"ARG_OF_PERICENTER":180.8274,"MEAN_ANOMALY":331.2897,"EPHEMERIS_TYPE":0,"CLASSIFICATION_TYPE":"U","NORAD_CAT_ID":31569,"ELEMENT_SET_NO":999,"REV_AT_EPOCH":94771,"BSTAR":0.0028663317,"MEAN_MOTION_DOT":4.42e-5,"MEAN_MOTION_DDOT":0},{"OBJECT_NAME":"FENGYUN 1C DEB","OBJECT_ID":"1999-025BZM","EPOCH":"2026-03-01T23:19:49.611072","MEAN_MOTION":14.26694182,"ECCENTRICITY":0.01413177,"INCLINATION":102.5662,"RA_OF_ASC_NODE":138.9267,"ARG_OF_PERICENTER":27.5771,"MEAN_ANOMALY":333.2802,"EPHEMERIS_TYPE":0,"CLASSIFICATION_TYPE":"U","NORAD_CAT_ID":31570,"ELEMENT_SET_NO":999,"REV_AT_EPOCH":64496,"BSTAR":0.0025543347,"MEAN_MOTION_DOT":6.796e-5,"MEAN_MOTION_DDOT":0},{"OBJECT_NAME":"FENGYUN 1C DEB","OBJECT_ID":"1999-025BZN","EPOCH":"2026-03-02T13:41:37.506336","MEAN_MOTION":14.87538843,"ECCENTRICITY":0.0142551,"INCLINATION":98.3825,"RA_OF_ASC_NODE":189.0735,"ARG_OF_PERICENTER":138.8532,"MEAN_ANOMALY":222.3537,"EPHEMERIS_TYPE":0,"CLASSIFICATION_TYPE":"U","NORAD_CAT_ID":31608,"ELEMENT_SET_NO":999,"REV_AT_EPOCH":99819,"BSTAR":0.0013409,"MEAN_MOTION_DOT":0.00014636,"MEAN_MOTION_DDOT":0},{"OBJECT_NAME":"FENGYUN 1C DEB","OBJECT_ID":"1999-025BZP","EPOCH":"2026-03-01T14:00:19.082880","MEAN_MOTION":14.1644345,"ECCENTRICITY":0.00956737,"INCLINATION":99.2053,"RA_OF_ASC_NODE":96.7959,"ARG_OF_PERICENTER":98.9765,"MEAN_ANOMALY":53.8437,"EPHEMERIS_TYPE":0,"CLASSIFICATION_TYPE":"U","NORAD_CAT_ID":31609,"ELEMENT_SET_NO":999,"REV_AT_EPOCH":67200,"BSTAR":0.0017351032,"MEAN_MOTION_DOT":3.563e-5,"MEAN_MOTION_DDOT":0},{"OBJECT_NAME":"FENGYUN 1C DEB","OBJECT_ID":"1999-025BZT","EPOCH":"2026-03-01T10:28:37.076736","MEAN_MOTION":13.63682953,"ECCENTRICITY":0.03434549,"INCLINATION":98.4279,"RA_OF_ASC_NODE":242.1479,"ARG_OF_PERICENTER":257.5118,"MEAN_ANOMALY":98.7407,"EPHEMERIS_TYPE":0,"CLASSIFICATION_TYPE":"U","NORAD_CAT_ID":31613,"ELEMENT_SET_NO":999,"REV_AT_EPOCH":92834,"BSTAR":0.0015712801,"MEAN_MOTION_DOT":1.816e-5,"MEAN_MOTION_DDOT":0},{"OBJECT_NAME":"FENGYUN 1C DEB","OBJECT_ID":"1999-025BZU","EPOCH":"2026-03-02T18:29:13.203744","MEAN_MOTION":15.23190077,"ECCENTRICITY":0.0020184,"INCLINATION":98.9644,"RA_OF_ASC_NODE":345.8812,"ARG_OF_PERICENTER":86.563,"MEAN_ANOMALY":273.7911,"EPHEMERIS_TYPE":0,"CLASSIFICATION_TYPE":"U","NORAD_CAT_ID":31614,"ELEMENT_SET_NO":999,"REV_AT_EPOCH":97636,"BSTAR":0.011797,"MEAN_MOTION_DOT":0.00291291,"MEAN_MOTION_DDOT":0},{"OBJECT_NAME":"FENGYUN 1C DEB","OBJECT_ID":"1999-025BZV","EPOCH":"2026-03-02T15:08:57.143616","MEAN_MOTION":14.3732415,"ECCENTRICITY":0.0162341,"INCLINATION":99.1386,"RA_OF_ASC_NODE":122.9277,"ARG_OF_PERICENTER":86.166,"MEAN_ANOMALY":275.8068,"EPHEMERIS_TYPE":0,"CLASSIFICATION_TYPE":"U","NORAD_CAT_ID":31615,"ELEMENT_SET_NO":999,"REV_AT_EPOCH":66425,"BSTAR":0.0033794,"MEAN_MOTION_DOT":0.00011704,"MEAN_MOTION_DDOT":0},{"OBJECT_NAME":"FENGYUN 1C DEB","OBJECT_ID":"1999-025BZY","EPOCH":"2026-02-28T15:46:24.356640","MEAN_MOTION":14.21228309,"ECCENTRICITY":0.01579241,"INCLINATION":99.4551,"RA_OF_ASC_NODE":213.0076,"ARG_OF_PERICENTER":106.0055,"MEAN_ANOMALY":255.8579,"EPHEMERIS_TYPE":0,"CLASSIFICATION_TYPE":"U","NORAD_CAT_ID":31618,"ELEMENT_SET_NO":999,"REV_AT_EPOCH":71371,"BSTAR":0.00039375871,"MEAN_MOTION_DOT":9.23e-6,"MEAN_MOTION_DDOT":0},{"OBJECT_NAME":"FENGYUN 1C DEB","OBJECT_ID":"1999-025BZZ","EPOCH":"2026-03-02T12:38:51.323424","MEAN_MOTION":14.96419384,"ECCENTRICITY":0.00755076,"INCLINATION":99.0704,"RA_OF_ASC_NODE":270.9232,"ARG_OF_PERICENTER":38.1436,"MEAN_ANOMALY":322.5091,"EPHEMERIS_TYPE":0,"CLASSIFICATION_TYPE":"U","NORAD_CAT_ID":31619,"ELEMENT_SET_NO":999,"REV_AT_EPOCH":64677,"BSTAR":0.0047529745,"MEAN_MOTION_DOT":0.00057432,"MEAN_MOTION_DDOT":0},{"OBJECT_NAME":"FENGYUN 1C DEB","OBJECT_ID":"1999-025CAA","EPOCH":"2026-03-02T01:30:20.784384","MEAN_MOTION":14.38491355,"ECCENTRICITY":0.00229194,"INCLINATION":98.8803,"RA_OF_ASC_NODE":152.8092,"ARG_OF_PERICENTER":167.469,"MEAN_ANOMALY":192.707,"EPHEMERIS_TYPE":0,"CLASSIFICATION_TYPE":"U","NORAD_CAT_ID":31620,"ELEMENT_SET_NO":999,"REV_AT_EPOCH":66984,"BSTAR":0.0024876607,"MEAN_MOTION_DOT":7.583e-5,"MEAN_MOTION_DDOT":0},{"OBJECT_NAME":"FENGYUN 1C DEB","OBJECT_ID":"1999-025CAC","EPOCH":"2026-03-02T05:15:43.778016","MEAN_MOTION":14.3822652,"ECCENTRICITY":0.0017171,"INCLINATION":98.8114,"RA_OF_ASC_NODE":162.9983,"ARG_OF_PERICENTER":115.2209,"MEAN_ANOMALY":275.1353,"EPHEMERIS_TYPE":0,"CLASSIFICATION_TYPE":"U","NORAD_CAT_ID":31622,"ELEMENT_SET_NO":999,"REV_AT_EPOCH":96914,"BSTAR":0.0021374809,"MEAN_MOTION_DOT":6.465e-5,"MEAN_MOTION_DDOT":0},{"OBJECT_NAME":"FENGYUN 1C DEB","OBJECT_ID":"1999-025CAD","EPOCH":"2026-02-23T20:08:21.789312","MEAN_MOTION":13.82678221,"ECCENTRICITY":0.01943272,"INCLINATION":97.6275,"RA_OF_ASC_NODE":257.6544,"ARG_OF_PERICENTER":161.74,"MEAN_ANOMALY":199.0865,"EPHEMERIS_TYPE":0,"CLASSIFICATION_TYPE":"U","NORAD_CAT_ID":31623,"ELEMENT_SET_NO":999,"REV_AT_EPOCH":58930,"BSTAR":0.00033728029,"MEAN_MOTION_DOT":3.93e-6,"MEAN_MOTION_DDOT":0}]
