FENGYUN 1C DEB          
1 31565U 99025BZG 26059.41826603  .00008244  00000+0  25527-2 0  9997
2 31565 100.7161 315.8842 0050226 166.9383 193.3111 14.40806305654713
FENGYUN 1C DEB          
1 31566U 99025BZH 26061.69702381  .00005860  00000+0  19233-2 0  9995
2 31566  98.9417 128.8844 0026325 123.3301   7.9703 14.38525142975403
FENGYUN 1C DEB          
1 31567U 99025BZJ 26061.66149876  .00003987  00000+0  26839-2 0  9995
2 31567 102.3165 319.5528 0184453 116.0316 245.9953 13.93551350685223
FENGYUN 1C DEB          
1 31568U 99025BZK 26058.46052344  .00004727  00000+0  28060-2 0  9994
2 31568 102.0506 330.2622 0128709 293.0734  65.6896 14.04209024956569
FENGYUN 1C DEB          
1 31569U 99025BZL 26060.03292526  .00004420  00000+0  28663-2 0  9998
2 31569 102.6187 250.8778 0174574 180.8274 331.2897 13.96308676947716
FENGYUN 1C DEB          
1 31570U 99025BZM 26060.97210198  .00006796  00000+0  25543-2 0  9990
2 31570 102.5662 138.9267 0141317  27.5771 333.2802 14.26694182644965
FENGYUN 1C DEB          
1 31608U 99025BZN 26061.57057299  .00014636  00000+0  13409-2 0  9990
2 31608  98.3825 189.0735 0142551 138.8532 222.3537 14.87538843998197
FENGYUN 1C DEB          
1 31609U 99025BZP 26060.58355420  .00003563  00000+0  17351-2 0  9995
2 31609  99.2053  96.7959 0095673  98.9765  53.8437 14.16443450672005
FENGYUN 1C DEB          
1 31613U 99025BZT 26060.43654024  .00001816  00000+0  15713-2 0  9995
2 31613  98.4279 242.1479 0343454 257.5118  98.7407 13.63682953928343
FENGYUN 1C DEB          
1 31614U 99025BZU 26061.77029171  .00291291  00000+0  11797-1 0  9998
2 31614  98.9644 345.8812 0020184  86.5630 273.7911 15.23190077976367
FENGYUN 1C DEB          
1 31615U 99025BZV 26061.63121694  .00011704  00000+0  33794-2 0  9998
2 31615  99.1386 122.9277 0162341  86.1660 275.8068 14.37324150664257
FENGYUN 1C DEB          
1 31618U 99025BZY 26059.65722635  .00000923  00000+0  39376-3 0  9996
2 31618  99.4551 213.0076 0157924 106.0055 255.8579 14.21228309713710
FENGYUN 1C DEB          
1 31619U 99025BZZ 26061.52698291  .00057432  00000+0  47530-2 0  9993
2 31619  99.0704 270.9232 0075507  38.1436 322.5091 14.96419384646776
FENGYUN 1C DEB          
1 31620U 99025CAA 26061.06274056  .00007583  00000+0  24877-2 0  9994
2 31620  98.8803 152.8092 0022919 167.4690 192.7070 14.38491355669845
FENGYUN 1C DEB          
1 31622U 99025CAC 26061.21925669  .00006465  00000+0  21375-2 0  9994
2 31622  98.8114 162.9983 0017171 115.2209 275.1353 14.38226520969140
FENGYUN 1C DEB          
1 31623U 99025CAD 26054.83914108  .00000393  00000+0  33728-3 0  9991
2 31623  97.6275 257.6544 0194327 161.7400 199.0865 13.82678221589304
